[
    {
        "Altitude(m)": 553508.5322696513,
        "Argument of Periapsis(deg)": 0.026491964442854003,
        "Eccentricity": 0.0,
        "Inclination(deg)": 53.0,
        "Latitude(deg)": 14.130264241319063,
        "Longitude(deg)": -124.05891719256695,
        "Mean Anomaly(deg)": 162.18467147031038,
        "RAAN(deg)": 169.96057347411207,
        "Satellite Name": "Starlink Shell 1 755",
        "Satellite Number": 755,
        "Semi-Major Axis(m)": 6931778.249405717,
        "Time(s)": 760
    },
    {
        "Altitude(m)": 553498.109784761,
        "Argument of Periapsis(deg)": 0.02684054292236524,
        "Eccentricity": 0.0,
        "Inclination(deg)": 53.0,
        "Latitude(deg)": 13.635153242405103,
        "Longitude(deg)": -123.70056508511804,
        "Mean Anomaly(deg)": 162.81150267386704,
        "RAAN(deg)": 169.9600547040346,
        "Satellite Name": "Starlink Shell 1 755",
        "Satellite Number": 755,
        "Semi-Major Axis(m)": 6931778.249405717,
        "Time(s)": 770
    },
    {
        "Altitude(m)": 553490.2106645958,
        "Argument of Periapsis(deg)": 0.027189121401876473,
        "Eccentricity": 0.0,
        "Inclination(deg)": 53.0,
        "Latitude(deg)": 13.13938697292827,
        "Longitude(deg)": -123.34387748825161,
        "Mean Anomaly(deg)": 163.4383338774238,
        "RAAN(deg)": 169.95953593395714,
        "Satellite Name": "Starlink Shell 1 755",
        "Satellite Number": 755,
        "Semi-Major Axis(m)": 6931778.249405717,
        "Time(s)": 780
    },
    {
        "Altitude(m)": 553484.8614195246,
        "Argument of Periapsis(deg)": 0.02753769988138771,
        "Eccentricity": 0.0,
        "Inclination(deg)": 53.0,
        "Latitude(deg)": 12.642992838834996,
        "Longitude(deg)": -122.98878707394715,
        "Mean Anomaly(deg)": 164.0651650809805,
        "RAAN(deg)": 169.95901716387965,
        "Satellite Name": "Starlink Shell 1 755",
        "Satellite Number": 755,
        "Semi-Major Axis(m)": 6931778.249405717,
        "Time(s)": 790
    },
    {
        "Altitude(m)": 553482.0873997995,
        "Argument of Periapsis(deg)": 0.02788627836089895,
        "Eccentricity": 0.0,
        "Inclination(deg)": 53.0,
        "Latitude(deg)": 12.145997901126627,
        "Longitude(deg)": -122.63522770473473,
        "Mean Anomaly(deg)": 164.69199628453723,
        "RAAN(deg)": 169.9584983938022,
        "Satellite Name": "Starlink Shell 1 755",
        "Satellite Number": 755,
        "Semi-Major Axis(m)": 6931778.249405717,
        "Time(s)": 800
    },
    {
        "Altitude(m)": 553481.9127802383,
        "Argument of Periapsis(deg)": 0.02823485684041019,
        "Eccentricity": 0.0,
        "Inclination(deg)": 53.0,
        "Latitude(deg)": 11.648428891419437,
        "Longitude(deg)": -122.28313390247047,
        "Mean Anomaly(deg)": 165.31882748809394,
        "RAAN(deg)": 169.95797962372473,
        "Satellite Name": "Starlink Shell 1 755",
        "Satellite Number": 755,
        "Semi-Major Axis(m)": 6931778.249405717,
        "Time(s)": 810
    },
    {
        "Altitude(m)": 553484.3605454762,
        "Argument of Periapsis(deg)": 0.028583435319921423,
        "Eccentricity": 0.0,
        "Inclination(deg)": 53.0,
        "Latitude(deg)": 11.15031222720422,
        "Longitude(deg)": -121.93244031716146,
        "Mean Anomaly(deg)": 165.94565869165064,
        "RAAN(deg)": 169.95746085364723,
        "Satellite Name": "Starlink Shell 1 755",
        "Satellite Number": 755,
        "Semi-Major Axis(m)": 6931778.249405717,
        "Time(s)": 820
    },
    {
        "Altitude(m)": 553489.4524758259,
        "Argument of Periapsis(deg)": 0.028932013799432665,
        "Eccentricity": 0.0,
        "Inclination(deg)": 53.0,
        "Latitude(deg)": 10.65167402682009,
        "Longitude(deg)": -121.58308270872331,
        "Mean Anomaly(deg)": 166.57248989520735,
        "RAAN(deg)": 169.95694208356977,
        "Satellite Name": "Starlink Shell 1 755",
        "Satellite Number": 755,
        "Semi-Major Axis(m)": 6931778.249405717,
        "Time(s)": 830
    },
    {
        "Altitude(m)": 553497.2091336896,
        "Argument of Periapsis(deg)": 0.029280592278943897,
        "Eccentricity": 0.0,
        "Inclination(deg)": 53.0,
        "Latitude(deg)": 10.152540124151137,
        "Longitude(deg)": -121.23499741593507,
        "Mean Anomaly(deg)": 167.1993210987641,
        "RAAN(deg)": 169.9564233134923,
        "Satellite Name": "Starlink Shell 1 755",
        "Satellite Number": 755,
        "Semi-Major Axis(m)": 6931778.249405717,
        "Time(s)": 840
    },
    {
        "Altitude(m)": 553507.649850609,
        "Argument of Periapsis(deg)": 0.029629170758455132,
        "Eccentricity": 0.0,
        "Inclination(deg)": 53.0,
        "Latitude(deg)": 9.65293608306103,
        "Longitude(deg)": -120.88812082547176,
        "Mean Anomaly(deg)": 167.82615230232076,
        "RAAN(deg)": 169.95590454341482,
        "Satellite Name": "Starlink Shell 1 755",
        "Satellite Number": 755,
        "Semi-Major Axis(m)": 6931778.249405717,
        "Time(s)": 850
    },
    {
        "Altitude(m)": 553520.7927148726,
        "Argument of Periapsis(deg)": 0.02997774923796637,
        "Eccentricity": 0.0,
        "Inclination(deg)": 53.0,
        "Latitude(deg)": 9.152887211578848,
        "Longitude(deg)": -120.5423905219906,
        "Mean Anomaly(deg)": 168.4529835058775,
        "RAAN(deg)": 169.95538577333735,
        "Satellite Name": "Starlink Shell 1 755",
        "Satellite Number": 755,
        "Semi-Major Axis(m)": 6931778.249405717,
        "Time(s)": 860
    },
    {
        "Altitude(m)": 553536.6545597924,
        "Argument of Periapsis(deg)": 0.030326327717477602,
        "Eccentricity": 0.0,
        "Inclination(deg)": 53.0,
        "Latitude(deg)": 8.652418575844083,
        "Longitude(deg)": -120.19774391684996,
        "Mean Anomaly(deg)": 169.0798147094342,
        "RAAN(deg)": 169.9548670032599,
        "Satellite Name": "Starlink Shell 1 755",
        "Satellite Number": 755,
        "Semi-Major Axis(m)": 6931778.249405717,
        "Time(s)": 870
    },
    {
        "Altitude(m)": 553555.2509525444,
        "Argument of Periapsis(deg)": 0.030674906196988847,
        "Eccentricity": 0.0,
        "Inclination(deg)": 53.0,
        "Latitude(deg)": 8.151555013829688,
        "Longitude(deg)": -119.85411939837645,
        "Mean Anomaly(deg)": 169.70664591299092,
        "RAAN(deg)": 169.9543482331824,
        "Satellite Name": "Starlink Shell 1 755",
        "Satellite Number": 755,
        "Semi-Major Axis(m)": 6931778.249405717,
        "Time(s)": 880
    },
    {
        "Altitude(m)": 553576.5961836692,
        "Argument of Periapsis(deg)": 0.031023484676500086,
        "Eccentricity": 0.0,
        "Inclination(deg)": 53.0,
        "Latitude(deg)": 7.650321148848599,
        "Longitude(deg)": -119.51145580125346,
        "Mean Anomaly(deg)": 170.3334771165477,
        "RAAN(deg)": 169.95382946310494,
        "Satellite Name": "Starlink Shell 1 755",
        "Satellite Number": 755,
        "Semi-Major Axis(m)": 6931778.249405717,
        "Time(s)": 890
    },
    {
        "Altitude(m)": 553600.7032571873,
        "Argument of Periapsis(deg)": 0.03137206315601132,
        "Eccentricity": 0.0,
        "Inclination(deg)": 53.0,
        "Latitude(deg)": 7.148741402860526,
        "Longitude(deg)": -119.16969187600618,
        "Mean Anomaly(deg)": 170.96030832010436,
        "RAAN(deg)": 169.95331069302748,
        "Satellite Name": "Starlink Shell 1 755",
        "Satellite Number": 755,
        "Semi-Major Axis(m)": 6931778.249405717,
        "Time(s)": 900
    },
    {
        "Altitude(m)": 553627.5838813621,
        "Argument of Periapsis(deg)": 0.03172064163552255,
        "Eccentricity": 0.0,
        "Inclination(deg)": 53.0,
        "Latitude(deg)": 6.646840009589698,
        "Longitude(deg)": -118.82876727145225,
        "Mean Anomaly(deg)": 171.5871395236611,
        "RAAN(deg)": 169.95279192294998,
        "Satellite Name": "Starlink Shell 1 755",
        "Satellite Number": 755,
        "Semi-Major Axis(m)": 6931778.249405717,
        "Time(s)": 910
    },
    {
        "Altitude(m)": 553657.2484600878,
        "Argument of Periapsis(deg)": 0.0320692201150338,
        "Eccentricity": 0.0,
        "Inclination(deg)": 53.0,
        "Latitude(deg)": 6.144641027465242,
        "Longitude(deg)": -118.4886220043733,
        "Mean Anomaly(deg)": 172.21397072721777,
        "RAAN(deg)": 169.95227315287252,
        "Satellite Name": "Starlink Shell 1 755",
        "Satellite Number": 755,
        "Semi-Major Axis(m)": 6931778.249405717,
        "Time(s)": 920
    },
    {
        "Altitude(m)": 553689.7060849513,
        "Argument of Periapsis(deg)": 0.032417798594545036,
        "Eccentricity": 0.0,
        "Inclination(deg)": 53.0,
        "Latitude(deg)": 5.642168352394974,
        "Longitude(deg)": -118.14919592927669,
        "Mean Anomaly(deg)": 172.8408019307745,
        "RAAN(deg)": 169.95175438279506,
        "Satellite Name": "Starlink Shell 1 755",
        "Satellite Number": 755,
        "Semi-Major Axis(m)": 6931778.249405717,
        "Time(s)": 930
    },
    {
        "Altitude(m)": 553724.9645279122,
        "Argument of Periapsis(deg)": 0.03276637707405627,
        "Eccentricity": 0.0,
        "Inclination(deg)": 53.0,
        "Latitude(deg)": 5.1394457303884895,
        "Longitude(deg)": -117.81042972111906,
        "Mean Anomaly(deg)": 173.4676331343313,
        "RAAN(deg)": 169.95123561271757,
        "Satellite Name": "Starlink Shell 1 755",
        "Satellite Number": 755,
        "Semi-Major Axis(m)": 6931778.249405717,
        "Time(s)": 940
    }
]